#aV2024  7  6  0  0  0.00000000     288 DD+AD WGS84 FIT  NGA
## 2321 518400.00000000   300.00000000 60497 0.0000000000000
+   31     2  3  4  5  6  7  8  9 10 11 12 13 14 15 16 17 18
+         19 20 21 22 23 24 25 26 27 28 29 30 31 32  0  0  0
+          0  0  0  0  0  0  0  0  0  0  0  0  0  0  0  0  0
+          0  0  0  0  0  0  0  0  0  0  0  0  0  0  0  0  0
+          0  0  0  0  0  0  0  0  0  0  0  0  0  0  0  0  0
++         2  2  2  2  2  2  2  2  2  2  2  2  2  2  2  2  2
++         2  2  2  2  2  2  2  2  2  2  2  2  2  2  0  0  0
++         0  0  0  0  0  0  0  0  0  0  0  0  0  0  0  0  0
++         0  0  0  0  0  0  0  0  0  0  0  0  0  0  0  0  0
++         0  0  0  0  0  0  0  0  0  0  0  0  0  0  0  0  0
%c cc cc ccc ccc cccc cccc cccc cccc ccccc ccccc ccccc ccccc
%c cc cc ccc ccc cccc cccc cccc cccc ccccc ccccc ccccc ccccc
%f  0.0000000  0.000000000  0.00000000000  0.000000000000000
%f  0.0000000  0.000000000  0.00000000000  0.000000000000000
%i    0    0    0    0      0      0      0      0         0
%i    0    0    0    0      0      0      0      0         0
/*      NGA, ST. LOUIS,MO.                                  
/*   EPHEMERIS COMPUTED FROM 2 DAYS OF DATA                 
/*   EPOCHA v9 SMOOTHER                                     
/*   G2296 IERS2010 SATIGS SATAPC                           
*  2024  7  6 22 15  0.00000000
P  2 -13886.885845  13372.892983  18609.653702   -404.022302                    
V  2    274.295547 -22802.313438  17327.202575      0.072890                    
P  3 -22192.555361  12982.021260  -6571.058137    446.747219                    
V  3  -8327.709014    964.131403  30906.071955      0.168315                    
P  4 -13999.025782   7367.097713 -21339.866548    398.432937                    
V  4 -20055.115971 -18225.965965   6725.168163      0.078655                    
P  5  24688.038303  -3812.345559  -9326.303443   -178.851252                    
V  5  -9733.099107   6561.138644 -28935.887924     -0.013112                    
P  6   6058.578001  21180.050287 -14696.877494    176.895259                    
V  6  -4758.513873  18207.709124  24279.883184     -0.223513                    
P  7  -5548.520458  25595.853474  -1935.655582    -75.454572                    
V  7  -3047.809494  -3655.960695 -31688.704519      0.082379                    
P  8 -21325.241937  -2031.275081  15858.069060    263.039544                    
V  8 -14966.500607 -13681.850153 -21305.516041      0.167611                    
P  9  -2329.739030  16561.769112 -20705.719611    262.973604                    
V  9 -21202.936168 -15277.433271  -9926.572315      0.149382                    
P 10  -6386.205409 -13379.716255  22254.113471    -59.697822                    
V 10  25903.910624  -9735.150574   1279.947721     -0.093176                    
P 11  13269.151775   8566.962779 -21338.851427   -700.008669                    
V 11  -6112.157065  26432.192699   6745.573457     -0.071662                    
P 12  24011.220762 -10500.571950  -4431.736712   -520.145671                    
V 12   5853.236086   1084.377336  31151.914139     -0.031213                    
P 13  21120.836503  11690.767778  11128.824340    662.842240                    
V 13   8261.984006  11909.244690 -27429.065295      0.025127                    
P 14   2042.738639  15652.755368  21381.277455    442.699464                    
V 14 -25759.219304   8547.724587  -4019.855467      0.089742                    
P 15  21348.997487   -625.853990  15399.408772    178.202819                    
V 15  16390.171218  12506.465938 -21328.722025      0.042433                    
P 16 -24075.147262  -1800.000613 -11893.384919   -243.951756                    
V 16  13352.611961  -5801.414392 -26472.058817      0.106685                    
P 17   9989.361079  21169.348560  12812.418460    682.478260                    
V 17 -12926.918767  -9062.020121  26059.901464     -0.070489                    
P 18   5857.013052 -25728.795013  -1755.335580   -633.667504                    
V 18   2120.007984   2674.041664 -32086.588201     -0.042628                    
P 19  16777.413791  20511.317167   3714.853164    506.751488                    
V 19  -5016.196524  -1879.736468  31185.192903      0.054240                    
P 20  19946.522688   2285.326310 -17246.898548    373.042958                    
V 20 -17959.958267  13028.665904 -19121.581947     -0.004033                    
P 21 -15113.170810   6871.305871  20925.629210    110.644447                    
V 21    498.632884 -25884.253143  10066.581620     -0.025138                    
P 22  10097.352294  12700.342156  21397.165018    -36.432054                    
V 22 -25085.126367   7798.347315   7641.163229     -0.046505                    
P 23   6928.256315 -16842.878825  19280.139455    267.665597                    
V 23  23056.512141  -8224.326684 -15687.984236      0.089899                    
P 24  14440.338771 -11550.237106  18492.821621   -481.911695                    
V 24    539.134239  24685.429045  15071.704339     -0.018608                    
P 25  16437.447456 -16498.136317 -12864.252066    498.241124                    
V 25  15762.149366  -3471.230804  25509.721911      0.004256                    
P 26 -15250.605993  -9199.167936 -19955.496321    124.575488                    
V 26  22095.415412 -11800.545059 -11163.739343     -0.067101                    
P 27 -22793.855829 -12011.534199   7007.678382    -30.453312                    
V 27  -5692.843554  -7576.472145 -29833.953257     -0.010155                    
P 28  -5860.057283 -22713.412537 -12467.623468   -320.313467                    
V 28   4306.556192 -15393.268074  26038.024178     -0.161302                    
P 29   6653.941977 -14027.431228 -21583.019292   -590.830891                    
V 29  20129.871068  18410.733572  -5893.756499      0.018709                    
P 30   1948.314391  25138.923915   8052.412323   -362.208206                    
V 30  -5129.253942   9438.704075 -29031.119736      0.064259                    
P 31 -11929.125210 -13099.638918 -19886.072129   -226.951724                    
V 31   5878.820475 -24255.389037  12974.263557      0.002600                    
P 32 -13182.284669 -20437.645602  11123.950387   -613.427630                    
V 32  12089.771541   6867.793299  27278.029640      0.017666                    
EOF
